[{"OBJECT_NAME":"IRS-P6 (RESOURCESAT-1)","OBJECT_ID":"2003-046A","EPOCH":"2026-03-10T00:23:01.313952","MEAN_MOTION":14.36117534,"ECCENTRICITY":0.00629144,"INCLINATION":98.2042,"RA_OF_ASC_NODE":110.3286,"ARG_OF_PERICENTER":280.126,"MEAN_ANOMALY":140.7181,"EPHEMERIS_TYPE":0,"CLASSIFICATION_TYPE":"U","NORAD_CAT_ID":28051,"ELEMENT_SET_NO":999,"REV_AT_EPOCH":16629,"BSTAR":9.8466414e-5,"MEAN_MOTION_DOT":2.52e-6,"MEAN_MOTION_DDOT":0},{"OBJECT_NAME":"CZ-4B DEB","OBJECT_ID":"1999-057KW","EPOCH":"2026-03-09T23:34:12.152640","MEAN_MOTION":14.50956215,"ECCENTRICITY":0.00781488,"INCLINATION":98.5194,"RA_OF_ASC_NODE":134.5954,"ARG_OF_PERICENTER":182.1654,"MEAN_ANOMALY":303.1785,"EPHEMERIS_TYPE":0,"CLASSIFICATION_TYPE":"U","NORAD_CAT_ID":26449,"ELEMENT_SET_NO":999,"REV_AT_EPOCH":36417,"BSTAR":0.00051152543,"MEAN_MOTION_DOT":2.053e-5,"MEAN_MOTION_DDOT":0}]
